[{"OBJECT_NAME":"TRANSPORTER-15 OBJECT CD","OBJECT_ID":"2025-276CD","EPOCH":"2026-03-06T20:38:14.841600","MEAN_MOTION":15.18860021,"ECCENTRICITY":0.00053081,"INCLINATION":97.4316,"RA_OF_ASC_NODE":141.2013,"ARG_OF_PERICENTER":3.5398,"MEAN_ANOMALY":356.5873,"EPHEMERIS_TYPE":0,"CLASSIFICATION_TYPE":"U","NORAD_CAT_ID":66741,"ELEMENT_SET_NO":999,"REV_AT_EPOCH":1218,"BSTAR":0.00084273364,"MEAN_MOTION_DOT":0.0001753,"MEAN_MOTION_DDOT":0},{"OBJECT_NAME":"CZ-4 DEB","OBJECT_ID":"1990-081Z","EPOCH":"2026-03-09T18:07:39.944352","MEAN_MOTION":15.17725505,"ECCENTRICITY":0.00034514,"INCLINATION":98.0344,"RA_OF_ASC_NODE":132.584,"ARG_OF_PERICENTER":292.5158,"MEAN_ANOMALY":67.5708,"EPHEMERIS_TYPE":0,"CLASSIFICATION_TYPE":"U","NORAD_CAT_ID":20861,"ELEMENT_SET_NO":999,"REV_AT_EPOCH":85925,"BSTAR":0.0035527985,"MEAN_MOTION_DOT":0.00072268,"MEAN_MOTION_DDOT":0}]
